TEVEL2-1                
1 63217U 25052H   26123.14236054  .00019580  00000+0  62769-3 0  9997
2 63217  97.3929  19.1246 0000695 325.9296  34.1901 15.32388721 63196
TEVEL2-3                
1 63218U 25052J   26123.46496921  .00020041  00000+0  64120-3 0  9991
2 63218  97.3932  19.4634 0000659 320.6526  39.4668 15.32447651 63245
TEVEL2-2                
1 63219U 25052K   26123.20817662  .00020007  00000+0  64111-3 0  9995
2 63219  97.3926  19.1918 0000742 324.3252  35.7940 15.32397556 63207
TEVEL2-9                
1 63237U 25052AD  26123.26017970  .00018692  00000+0  63450-3 0  9997
2 63237  97.3990  18.7116 0004499 314.8159  45.2716 15.30545019 63154
TEVEL2-7                
1 63238U 25052AE  26123.22760963  .00017679  00000+0  60516-3 0  9995
2 63238  97.3994  18.6131 0004554 315.7853  44.3023 15.30283254 63148
TEVEL2-8                
1 63239U 25052AF  26122.64683984  .00016873  00000+0  57850-3 0  9990
2 63239  97.3994  18.0131 0004640 319.1454  40.9439 15.30241940 63053
HADES-ICM               
1 63492U 25052BN  26123.52626868  .00576562  00000+0  24922-2 0  9996
2 63492  97.3812  26.8441 0005899 160.4517 199.6980 15.83466184 63733
INNOSAT 16 (RS92S7)     
1 64878U 25155C   26123.52038233  .00007581  00000+0  30656-3 0  9994
2 64878  97.4542  90.8173 0010109 354.5539   5.5587 15.24967109 73867
GEOSCAN 6 (RS92S6)      
1 64879U 25155D   26123.50372780  .00012063  00000+0  42659-3 0  9998
2 64879  97.4537  91.9220 0007092 352.5565   7.5568 15.29299886 73935
GEOSCAN 1 (RS92S1)      
1 64880U 25155E   26123.52249598  .00013583  00000+0  47225-3 0  9994
2 64880  97.4533  92.0525 0007031 352.9233   7.1907 15.29824644 73942
239ALFEROV (RS61S)      
1 64881U 25155F   26123.48638536  .00016658  00000+0  54520-3 0  9996
2 64881  97.4536  92.4371 0006489 354.1356   5.9808 15.31739080 73965
GEOSCAN 2 (RS92S2)      
1 64890U 25155Q   26123.52423359  .00013316  00000+0  45908-3 0  9994
2 64890  97.4533  92.1884 0005870 339.8121  20.2886 15.30111851 73955
GEOSCAN 5 (RS92S5)      
1 64891U 25155R   26123.48472441  .00016376  00000+0  53073-3 0  9997
2 64891  97.4527  92.5558 0005723   4.7590 355.3705 15.32063502 73971
GEOSCAN 4 (RS92S4)      
1 64892U 25155S   26123.47299641  .00016934  00000+0  54651-3 0  9999
2 64892  97.4531  92.5806 0005753   5.5576 354.5728 15.32191217 73970
GEOSCAN 3 (RS92S3)      
1 64893U 25155T   26123.52725910  .00021118  00000+0  64523-3 0  9998
2 64893  97.4522  92.9459 0005414   9.0459 351.0880 15.33895953 74007
INNOSAT 3 (RS92S0)      
1 64894U 25155U   26123.47794729  .00040227  00000+0  98001-3 0  9997
2 64894  97.4478  94.0205 0004532  21.7824 338.3614 15.40798395 74077
KNACKSAT-2              
1 67683U 98067XZ  26123.38551293  .00042137  00000+0  59112-3 0  9997
2 67683  51.6273 159.1481 0012716  31.7607 328.4149 15.56224547 13293
